CSS (TIANHE)            
1 48274U 21035A   24217.81655658  .00056067  00000+0  68589-3 0  9998
2 48274  41.4682 146.5690 0000638 290.9802  69.0968 15.59517995186706
